start=new Date('2021-11-11T00:00:00.000Z').valueOf();
sats=[{"EPOCH":"2021-11-10T11:28:42.258432","LAUNCH_DATE":"2020-02-17","MEAN_ELEMENT_THEORY":"SGP4","COUNTRY_CODE":"US","MEAN_MOTION":"15.06414049","TLE_LINE2":"2 45191  53.0526 300.4721 0001610  66.6512 293.4647 15.06414049 96019","OBJECT_ID":"2020-012P","OBJECT_TYPE":"PAYLOAD","REV_AT_EPOCH":"9601","TLE_LINE1":"1 45191U 20012P   21314.47826688  .00000751  00000-0  69308-4 0  9998","SITE":"AFETR","RA_OF_ASC_NODE":"300.4721","APOAPSIS":"548.285","DECAY_DATE":null,"EPHEMERIS_TYPE":"0","GP_ID":"189402912","CENTER_NAME":"EARTH","PERIAPSIS":"546.056","MEAN_MOTION_DOT":"0.00000751","MEAN_MOTION_DDOT":"0.0000000000000","TIME_SYSTEM":"UTC","ARG_OF_PERICENTER":"66.6512","ECCENTRICITY":"0.00016100","INCLINATION":"53.0526","NORAD_CAT_ID":"45191","RCS_SIZE":"LARGE","SEMIMAJOR_AXIS":"6925.306","OBJECT_NAME":"STARLINK-1236","PERIOD":"95.591","ELEMENT_SET_NO":"999","MEAN_ANOMALY":"293.4647","FILE":"3211025","REF_FRAME":"TEME","CLASSIFICATION_TYPE":"U","BSTAR":"0.00006930800000"},{"SEMIMAJOR_AXIS":"6925.294","INCLINATION":"53.0527","NORAD_CAT_ID":"45192","RCS_SIZE":"LARGE","MEAN_ANOMALY":"286.7685","OBJECT_NAME":"STARLINK-1237","ELEMENT_SET_NO":"999","PERIOD":"95.591","REF_FRAME":"TEME","CLASSIFICATION_TYPE":"U","FILE":"3210791","BSTAR":"0.00023652000000","MEAN_MOTION_DDOT":"0.0000000000000","GP_ID":"189373922","CENTER_NAME":"EARTH","PERIAPSIS":"546.013","MEAN_MOTION_DOT":"0.00003245","TIME_SYSTEM":"UTC","ARG_OF_PERICENTER":"73.3486","ECCENTRICITY":"0.00016540","SITE":"AFETR","OBJECT_TYPE":"PAYLOAD","REV_AT_EPOCH":"9571","TLE_LINE1":"1 45192U 20012Q   21314.38612171  .00003245  00000-0  23652-3 0  9991","RA_OF_ASC_NODE":"300.8855","EPHEMERIS_TYPE":"0","APOAPSIS":"548.304","DECAY_DATE":null,"MEAN_ELEMENT_THEORY":"SGP4","EPOCH":"2021-11-10T09:16:00.915744","LAUNCH_DATE":"2020-02-17","TLE_LINE2":"2 45192  53.0527 300.8855 0001654  73.3486 286.7685 15.06417959 95712","MEAN_MOTION":"15.06417959","OBJECT_ID":"2020-012Q","COUNTRY_CODE":"US"},{"SITE":"AFETR","OBJECT_TYPE":"PAYLOAD","REV_AT_EPOCH":"9660","TLE_LINE1":"1 45193U 20012R   21314.44142883  .00003847  00000-0  27694-3 0  9995","RA_OF_ASC_NODE":"300.6293","EPHEMERIS_TYPE":"0","APOAPSIS":"548.297","DECAY_DATE":null,"MEAN_ELEMENT_THEORY":"SGP4","EPOCH":"2021-11-10T10:35:39.450912","LAUNCH_DATE":"2020-02-17","OBJECT_ID":"2020-012R","TLE_LINE2":"2 45193  53.0540 300.6293 0001614  68.4872 291.6289 15.06411216 96606","MEAN_MOTION":"15.06411216","COUNTRY_CODE":"US","SEMIMAJOR_AXIS":"6925.314","INCLINATION":"53.0540","NORAD_CAT_ID":"45193","RCS_SIZE":"LARGE","MEAN_ANOMALY":"291.6289","OBJECT_NAME":"STARLINK-1239","PERIOD":"95.591","ELEMENT_SET_NO":"999","REF_FRAME":"TEME","CLASSIFICATION_TYPE":"U","FILE":"3211038","BSTAR":"0.00027694000000","MEAN_MOTION_DDOT":"0.0000000000000","GP_ID":"189422694","MEAN_MOTION_DOT":"0.00003847","PERIAPSIS":"546.061","CENTER_NAME":"EARTH","TIME_SYSTEM":"UTC","ARG_OF_PERICENTER":"68.4872","ECCENTRICITY":"0.00016140"},{"BSTAR":"-0.00003900100000","FILE":"3211038","CLASSIFICATION_TYPE":"U","REF_FRAME":"TEME","ELEMENT_SET_NO":"999","PERIOD":"95.592","OBJECT_NAME":"STARLINK-1240","MEAN_ANOMALY":"289.5972","RCS_SIZE":"LARGE","INCLINATION":"53.0570","NORAD_CAT_ID":"45194","SEMIMAJOR_AXIS":"6925.348","ECCENTRICITY":"0.00013530","ARG_OF_PERICENTER":"70.5163","TIME_SYSTEM":"UTC","PERIAPSIS":"546.276","MEAN_MOTION_DOT":"-0.00000862","CENTER_NAME":"EARTH","GP_ID":"189422892","MEAN_MOTION_DDOT":"0.0000000000000","DECAY_DATE":null,"APOAPSIS":"548.150","EPHEMERIS_TYPE":"0","RA_OF_ASC_NODE":"300.9144","TLE_LINE1":"1 45194U 20012S   21314.37874930 -.00000862  00000-0 -39001-4 0  9995","REV_AT_EPOCH":"9654","OBJECT_TYPE":"PAYLOAD","SITE":"AFETR","COUNTRY_CODE":"US","OBJECT_ID":"2020-012S","TLE_LINE2":"2 45194  53.0570 300.9144 0001353  70.5163 289.5972 15.06400328 96545","MEAN_MOTION":"15.06400328","LAUNCH_DATE":"2020-02-17","EPOCH":"2021-11-10T09:05:23.939520","MEAN_ELEMENT_THEORY":"SGP4"},{"MEAN_ELEMENT_THEORY":"SGP4","LAUNCH_DATE":"2020-02-17","EPOCH":"2021-11-10T10:30:20.360160","OBJECT_ID":"2020-012T","TLE_LINE2":"2 45195  53.0533 300.6486 0001573  72.2196 287.8964 15.06416634 96651","MEAN_MOTION":"15.06416634","COUNTRY_CODE":"US","RA_OF_ASC_NODE":"300.6486","EPHEMERIS_TYPE":"0","DECAY_DATE":null,"APOAPSIS":"548.252","SITE":"AFETR","REV_AT_EPOCH":"9665","TLE_LINE1":"1 45195U 20012T   21314.43773565  .00005110  00000-0  36153-3 0  9998","OBJECT_TYPE":"PAYLOAD","ARG_OF_PERICENTER":"72.2196","ECCENTRICITY":"0.00015730","MEAN_MOTION_DDOT":"0.0000000000000","PERIAPSIS":"546.073","CENTER_NAME":"EARTH","MEAN_MOTION_DOT":"0.00005110","GP_ID":"189421716","TIME_SYSTEM":"UTC","CLASSIFICATION_TYPE":"U","REF_FRAME":"TEME","FILE":"3211038","BSTAR":"0.00036153000000","SEMIMAJOR_AXIS":"6925.298","RCS_SIZE":"LARGE","INCLINATION":"53.0533","NORAD_CAT_ID":"45195","MEAN_ANOMALY":"287.8964","PERIOD":"95.591","ELEMENT_SET_NO":"999","OBJECT_NAME":"STARLINK-1241"},{"TLE_LINE2":"2 45196  53.0531 300.3954 0001568  69.6712 290.4446 15.06402099 96717","OBJECT_ID":"2020-012U","MEAN_MOTION":"15.06402099","COUNTRY_CODE":"US","MEAN_ELEMENT_THEORY":"SGP4","LAUNCH_DATE":"2020-02-17","EPOCH":"2021-11-10T11:49:56.208288","EPHEMERIS_TYPE":"0","DECAY_DATE":null,"APOAPSIS":"548.293","RA_OF_ASC_NODE":"300.3954","SITE":"AFETR","REV_AT_EPOCH":"9671","TLE_LINE1":"1 45196U 20012U   21314.49301167  .00000367  00000-0  43559-4 0  9998","OBJECT_TYPE":"PAYLOAD","ECCENTRICITY":"0.00015680","ARG_OF_PERICENTER":"69.6712","TIME_SYSTEM":"UTC","MEAN_MOTION_DDOT":"0.0000000000000","MEAN_MOTION_DOT":"0.00000367","PERIAPSIS":"546.121","CENTER_NAME":"EARTH","GP_ID":"189422466","BSTAR":"0.00004355900000","CLASSIFICATION_TYPE":"U","REF_FRAME":"TEME","FILE":"3211038","MEAN_ANOMALY":"290.4446","ELEMENT_SET_NO":"999","PERIOD":"95.592","OBJECT_NAME":"STARLINK-1244","SEMIMAJOR_AXIS":"6925.342","RCS_SIZE":"LARGE","NORAD_CAT_ID":"45196","INCLINATION":"53.0531"},{"BSTAR":"0.00003864600000","FILE":"3211038","CLASSIFICATION_TYPE":"U","REF_FRAME":"TEME","PERIOD":"95.592","ELEMENT_SET_NO":"999","OBJECT_NAME":"STARLINK-1269","MEAN_ANOMALY":"288.4619","RCS_SIZE":"LARGE","NORAD_CAT_ID":"45197","INCLINATION":"53.0549","SEMIMAJOR_AXIS":"6925.329","ECCENTRICITY":"0.00016570","ARG_OF_PERICENTER":"71.6550","TIME_SYSTEM":"UTC","CENTER_NAME":"EARTH","PERIAPSIS":"546.047","MEAN_MOTION_DOT":"0.00000294","GP_ID":"189423194","MEAN_MOTION_DDOT":"0.0000000000000","DECAY_DATE":null,"APOAPSIS":"548.342","EPHEMERIS_TYPE":"0","RA_OF_ASC_NODE":"300.4451","REV_AT_EPOCH":"9663","TLE_LINE1":"1 45197U 20012V   21314.48196235  .00000294  00000-0  38646-4 0  9996","OBJECT_TYPE":"PAYLOAD","SITE":"AFETR","COUNTRY_CODE":"US","TLE_LINE2":"2 45197  53.0549 300.4451 0001657  71.6550 288.4619 15.06406220 96632","MEAN_MOTION":"15.06406220","OBJECT_ID":"2020-012V","LAUNCH_DATE":"2020-02-17","EPOCH":"2021-11-10T11:34:01.547040","MEAN_ELEMENT_THEORY":"SGP4"},{"MEAN_MOTION":"15.06409142","TLE_LINE2":"2 45198  53.0526 281.3922 0001672  63.0902 297.0258 15.06409142 96856","OBJECT_ID":"2020-012W","COUNTRY_CODE":"US","MEAN_ELEMENT_THEORY":"SGP4","LAUNCH_DATE":"2020-02-17","EPOCH":"2021-11-10T06:34:08.005728","EPHEMERIS_TYPE":"0","DECAY_DATE":null,"APOAPSIS":"548.343","RA_OF_ASC_NODE":"281.3922","SITE":"AFETR","REV_AT_EPOCH":"9685","TLE_LINE1":"1 45198U 20012W   21314.27370377  .00002763  00000-0  20427-3 0  9995","OBJECT_TYPE":"PAYLOAD","ECCENTRICITY":"0.00016720","ARG_OF_PERICENTER":"63.0902","TIME_SYSTEM":"UTC","MEAN_MOTION_DDOT":"0.0000000000000","PERIAPSIS":"546.028","MEAN_MOTION_DOT":"0.00002763","CENTER_NAME":"EARTH","GP_ID":"189423392","BSTAR":"0.00020427000000","CLASSIFICATION_TYPE":"U","REF_FRAME":"TEME","FILE":"3211038","MEAN_ANOMALY":"297.0258","ELEMENT_SET_NO":"999","PERIOD":"95.592","OBJECT_NAME":"STARLINK-1154","SEMIMAJOR_AXIS":"6925.321","RCS_SIZE":"LARGE","INCLINATION":"53.0526","NORAD_CAT_ID":"45198"},{"ECCENTRICITY":"0.00015100","ARG_OF_PERICENTER":"58.2855","TIME_SYSTEM":"UTC","MEAN_MOTION_DOT":"0.00003363","PERIAPSIS":"546.148","CENTER_NAME":"EARTH","GP_ID":"189422216","MEAN_MOTION_DDOT":"0.0000000000000","BSTAR":"0.00024450000000","FILE":"3211038","CLASSIFICATION_TYPE":"U","REF_FRAME":"TEME","PERIOD":"95.592","ELEMENT_SET_NO":"999","OBJECT_NAME":"STARLINK-1197","MEAN_ANOMALY":"301.8281","RCS_SIZE":"LARGE","NORAD_CAT_ID":"45199","INCLINATION":"53.0526","SEMIMAJOR_AXIS":"6925.328","COUNTRY_CODE":"US","TLE_LINE2":"2 45199  53.0526 280.7797 0001510  58.2855 301.8281 15.06406568 96932","OBJECT_ID":"2020-012X","MEAN_MOTION":"15.06406568","LAUNCH_DATE":"2020-02-17","EPOCH":"2021-11-10T09:50:30.797088","MEAN_ELEMENT_THEORY":"SGP4","DECAY_DATE":null,"APOAPSIS":"548.239","EPHEMERIS_TYPE":"0","RA_OF_ASC_NODE":"280.7797","REV_AT_EPOCH":"9693","TLE_LINE1":"1 45199U 20012X   21314.41007867  .00003363  00000-0  24450-3 0  9990","OBJECT_TYPE":"PAYLOAD","SITE":"AFETR"},{"SITE":"AFETR","OBJECT_TYPE":"PAYLOAD","TLE_LINE1":"1 45201U 20012Z   21314.28476263  .00000609  00000-0  59779-4 0  9992","REV_AT_EPOCH":"9691","EPHEMERIS_TYPE":"0","APOAPSIS":"548.237","DECAY_DATE":null,"RA_OF_ASC_NODE":"281.3413","MEAN_MOTION":"15.06401115","TLE_LINE2":"2 45201  53.0546 281.3413 0001483  73.5939 286.5213 15.06401115 96917","OBJECT_ID":"2020-012Z","COUNTRY_CODE":"US","MEAN_ELEMENT_THEORY":"SGP4","EPOCH":"2021-11-10T06:50:03.491232","LAUNCH_DATE":"2020-02-17","MEAN_ANOMALY":"286.5213","OBJECT_NAME":"STARLINK-1199","ELEMENT_SET_NO":"999","PERIOD":"95.592","SEMIMAJOR_AXIS":"6925.345","NORAD_CAT_ID":"45201","INCLINATION":"53.0546","RCS_SIZE":"LARGE","BSTAR":"0.00005977900000","REF_FRAME":"TEME","CLASSIFICATION_TYPE":"U","FILE":"3211038","TIME_SYSTEM":"UTC","MEAN_MOTION_DDOT":"0.0000000000000","GP_ID":"189421967","PERIAPSIS":"546.183","CENTER_NAME":"EARTH","MEAN_MOTION_DOT":"0.00000609","ECCENTRICITY":"0.00014830","ARG_OF_PERICENTER":"73.5939"}];
